STARLINK-31058          
1 58677U 23211L   26068.40535073  .00000545  00000+0  29352-4 0  9999
2 58677  43.0017  86.6677 0001460 282.9490  77.1198 15.27550552122426
NUSAT-48 (HENRIETTA LE*)
1 60498U 24149AG  26068.80506098  .00012988  00000+0  45212-3 0  9999
2 60498  97.3923 150.8264 0002754 263.3026  96.7901 15.29812597 86946
