[{"OBJECT_NAME":"STARLINK-31058","OBJECT_ID":"2023-211L","EPOCH":"2026-03-09T09:43:42.303072","MEAN_MOTION":15.27550552,"ECCENTRICITY":0.00014602,"INCLINATION":43.0017,"RA_OF_ASC_NODE":86.6677,"ARG_OF_PERICENTER":282.949,"MEAN_ANOMALY":77.1198,"EPHEMERIS_TYPE":0,"CLASSIFICATION_TYPE":"U","NORAD_CAT_ID":58677,"ELEMENT_SET_NO":999,"REV_AT_EPOCH":12242,"BSTAR":2.9351814e-5,"MEAN_MOTION_DOT":5.45e-6,"MEAN_MOTION_DDOT":0},{"OBJECT_NAME":"NUSAT-48 (HENRIETTA LEAVITT)","OBJECT_ID":"2024-149AG","EPOCH":"2026-03-09T19:19:17.269536","MEAN_MOTION":15.29812597,"ECCENTRICITY":0.00027538,"INCLINATION":97.3923,"RA_OF_ASC_NODE":150.8264,"ARG_OF_PERICENTER":263.3026,"MEAN_ANOMALY":96.7901,"EPHEMERIS_TYPE":0,"CLASSIFICATION_TYPE":"U","NORAD_CAT_ID":60498,"ELEMENT_SET_NO":999,"REV_AT_EPOCH":8694,"BSTAR":0.00045211745,"MEAN_MOTION_DOT":0.00012988,"MEAN_MOTION_DDOT":0}]
